[{"OBJECT_NAME":"HAWK-2B","OBJECT_ID":"2021-006CZ","EPOCH":"2026-03-09T16:13:51.664224","MEAN_MOTION":15.33301353,"ECCENTRICITY":0.00071021,"INCLINATION":97.2334,"RA_OF_ASC_NODE":114.114,"ARG_OF_PERICENTER":185.9063,"MEAN_ANOMALY":174.2098,"EPHEMERIS_TYPE":0,"CLASSIFICATION_TYPE":"U","NORAD_CAT_ID":47508,"ELEMENT_SET_NO":999,"REV_AT_EPOCH":28424,"BSTAR":0.00029650607,"MEAN_MOTION_DOT":9.474e-5,"MEAN_MOTION_DDOT":0},{"OBJECT_NAME":"STARLINK-35272","OBJECT_ID":"2025-224T","EPOCH":"2026-03-09T03:18:38.807424","MEAN_MOTION":15.30219147,"ECCENTRICITY":0.00010919,"INCLINATION":53.1594,"RA_OF_ASC_NODE":13.6334,"ARG_OF_PERICENTER":73.1013,"MEAN_ANOMALY":287.0107,"EPHEMERIS_TYPE":0,"CLASSIFICATION_TYPE":"U","NORAD_CAT_ID":65899,"ELEMENT_SET_NO":999,"REV_AT_EPOCH":2478,"BSTAR":0.0011594227,"MEAN_MOTION_DOT":0.00034158,"MEAN_MOTION_DDOT":0}]
