HAWK-2B                 
1 47508U 21006CZ  26068.67629241  .00009474  00000+0  29651-3 0  9991
2 47508  97.2334 114.1140 0007102 185.9063 174.2098 15.33301353284246
STARLINK-35272          
1 65899U 25224T   26068.13794916  .00034158  00000+0  11594-2 0  9996
2 65899  53.1594  13.6334 0001091  73.1013 287.0107 15.30219147 24781
